NORAD_CAT_ID,OBJECT_NAME,OBJECT_TYPE,EPOCH,MEAN_MOTION,ECCENTRICITY,INCLINATION,RA_OF_ASC_NODE,ARG_OF_PERICENTER,MEAN_ANOMALY,BSTAR,MEAN_MOTION_DOT,MEAN_MOTION_DDOT,TLE_LINE0,TLE_LINE1,TLE_LINE2,SEMIMAJOR_AXIS,PERIOD,APOGEE,PERIGEE,DECAYED
56791.0,STARLINK-5977,PAYLOAD,2023-09-25 12:00:00,15.32710966,0.0003275,69.9995,85.3281,266.1786,249.0068,-0.031161,-0.00906069,0.0,0 STARLINK-5977,1 56791U 23078AA  23268.50001157 -.00906069  00000-0 -31161-1 0  9993,2 56791  69.9995  85.3281 0003275 266.1786 249.0068 15.32710966 18667,6845.865,93.951,469.972,465.488,0.0
56791.0,STARLINK-5977,PAYLOAD,2023-09-25 14:00:01,15.32567549,0.0003413,69.9994,85.1065,265.3349,349.5619,-0.032682,-0.00942712,0.0,0 STARLINK-5977,1 56791U 23078AA  23268.58335648 -.00942712  00000-0 -32682-1 0  9990,2 56791  69.9994  85.1065 0003413 265.3349 349.5619 15.32567549  5913,6846.292,93.96,470.494,465.82,0.0
56791.0,STARLINK-5977,PAYLOAD,2023-09-25 22:00:00,15.31876482,0.0003388,69.9992,84.2209,271.8632,21.102,-0.031123,-0.00883457,0.0,0 STARLINK-5977,1 56791U 23078AA  23268.91667824 -.00883457  00000-0 -31123-1 0  9990,2 56791  69.9992  84.2209 0003388 271.8632  21.1020 15.31876482  5961,6848.351,94.002,472.536,467.896,0.0
56791.0,STARLINK-5977,PAYLOAD,2023-09-26 04:00:00,15.31415539,0.0003259,69.999,83.5573,270.0127,321.0208,-0.034104,-0.00948219,0.0,0 STARLINK-5977,1 56791U 23078AA  23269.16667824 -.00948219  00000-0 -34104-1 0  9998,2 56791  69.9990  83.5573 0003259 270.0127 321.0208 15.31415539 18777,6849.725,94.031,473.822,469.358,0.0
56791.0,STARLINK-5977,PAYLOAD,2023-09-26 12:00:00,15.30759039,0.0003316,69.9991,82.6734,265.2624,2.5095,-0.033444,-0.00914026,0.0,0 STARLINK-5977,1 56791U 23078AA  23269.50001157 -.00914026  00000-0 -33444-1 0  9992,2 56791  69.9991  82.6734 0003316 265.2624   2.5095 15.30759039 18825,6851.683,94.071,475.82,471.276,0.0
56791.0,STARLINK-5977,PAYLOAD,2023-09-26 14:00:01,15.30613277,0.0003465,69.9992,82.4525,268.8591,98.0388,-0.034993,-0.00961011,0.0,0 STARLINK-5977,1 56791U 23078AA  23269.58335648 -.00961011  00000-0 -34993-1 0  9991,2 56791  69.9992  82.4525 0003465 268.8591  98.0388 15.30613277  6026,6852.118,94.08,476.358,471.609,0.0
56791.0,STARLINK-5977,PAYLOAD,2023-09-26 22:00:00,15.29920583,0.0003424,69.9987,81.5694,275.3677,127.2513,-0.033147,-0.008851,0.0,0 STARLINK-5977,1 56791U 23078AA  23269.91667824 -.00885100  00000-0 -33147-1 0  9996,2 56791  69.9987  81.5694 0003424 275.3677 127.2513 15.29920583  6024,6854.186,94.123,478.398,473.705,0.0
56791.0,STARLINK-5977,PAYLOAD,2023-09-27 04:00:00,15.29453911,0.000336,69.9987,80.9078,271.5919,67.3375,-0.035956,-0.0095318,0.0,0 STARLINK-5977,1 56791U 23078AA  23270.16667824 -.00953180  00000-0 -35956-1 0  9999,2 56791  69.9987  80.9078 0003360 271.5919  67.3375 15.29453911 18927,6855.581,94.151,479.749,475.142,0.0
56791.0,STARLINK-5977,PAYLOAD,2023-09-27 14:00:01,15.28657038,0.0003327,69.999,79.8063,271.2483,200.5469,-0.037286,-0.00963627,0.0,0 STARLINK-5977,1 56791U 23078AA  23270.58334491 -.00963627  00000-0 -37286-1 0  9991,2 56791  69.9990  79.8063 0003327 271.2483 200.5469 15.28657038  5935,6857.963,94.2,482.11,477.546,0.0
56791.0,STARLINK-5977,PAYLOAD,2023-09-27 20:00:01,15.28127977,0.0003391,69.9988,79.1459,275.826,131.1251,-0.035313,-0.00891665,0.0,0 STARLINK-5977,1 56791U 23078AA  23270.83334491 -.00891665  00000-0 -35313-1 0  9990,2 56791  69.9988  79.1459 0003391 275.8260 131.1251 15.28127977 19025,6859.546,94.233,483.737,479.085,0.0
56791.0,STARLINK-5977,PAYLOAD,2023-09-28 12:00:00,15.26851529,0.0003248,69.9992,77.3873,270.4443,201.3802,-0.038242,-0.00937267,0.0,0 STARLINK-5977,1 56791U 23078AA  23271.50001157 -.00937267  00000-0 -38242-1 0  9998,2 56791  69.9992  77.3873 0003248 270.4443 201.3802 15.26851529 19123,6863.368,94.312,487.462,483.004,0.0
56791.0,STARLINK-5977,PAYLOAD,2023-09-28 16:00:30,15.26518088,0.0003366,69.9991,76.9473,270.7815,38.6935,-0.038787,-0.00940799,0.0,0 STARLINK-5977,1 56791U 23078AA  23271.66702546 -.00940799  00000-0 -38787-1 0  9993,2 56791  69.9991  76.9473 0003366 270.7815  38.6935 15.26518088  5943,6864.368,94.332,488.543,483.922,0.0
56791.0,STARLINK-5977,PAYLOAD,2023-09-28 22:00:01,15.26005388,0.0003309,69.9989,76.2899,274.951,325.9193,-0.037336,-0.00884328,0.0,0 STARLINK-5977,1 56791U 23078AA  23271.91668981 -.00884328  00000-0 -37336-1 0  9999,2 56791  69.9989  76.2899 0003309 274.9510 325.9193 15.26005388  5986,6865.905,94.364,490.042,485.498,0.0
56791.0,STARLINK-5977,PAYLOAD,2023-09-29 12:00:00,15.24892571,0.0003133,69.9995,74.756,269.532,293.7588,-0.040365,-0.00932749,0.0,0 STARLINK-5977,1 56791U 23078AA  23272.50001157 -.00932749  00000-0 -40365-1 0  9998,2 56791  69.9995  74.7560 0003133 269.5320 293.7588 15.24892571 19289,6869.245,94.433,493.262,488.958,0.0
56791.0,STARLINK-5977,PAYLOAD,2023-09-29 14:00:01,15.24737652,0.0003302,69.9995,74.5371,270.5645,30.032,-0.04154,-0.0095382,0.0,0 STARLINK-5977,1 56791U 23078AA  23272.58334491 -.00953820  00000-0 -41540-1 0  9995,2 56791  69.9995  74.5371 0003302 270.5645  30.0320 15.24737652  5859,6869.71,94.442,493.844,489.307,0.0
56791.0,STARLINK-5977,PAYLOAD,2023-09-30 06:00:00,15.23381863,0.0003363,69.9995,72.7877,271.4137,85.8764,-0.039708,-0.00870444,0.0,0 STARLINK-5977,1 56791U 23078AA  23273.25001157 -.00870444  00000-0 -39708-1 0  9993,2 56791  69.9995  72.7877 0003363 271.4137  85.8764 15.23381863  5952,6873.786,94.527,497.962,493.339,0.0
56791.0,STARLINK-5977,PAYLOAD,2023-09-30 12:00:00,15.22938401,0.0003341,69.9999,72.1328,269.1651,18.5502,-0.04294,-0.00935792,0.0,0 STARLINK-5977,1 56791U 23078AA  23273.50001157 -.00935792  00000-0 -42940-1 0  9991,2 56791  69.9999  72.1328 0003341 269.1651  18.5502 15.22938401 19438,6875.12,94.554,499.282,494.688,0.0
56791.0,STARLINK-5977,PAYLOAD,2023-10-01 12:00:00,15.20983142,0.0003393,70.0004,69.5177,271.0636,94.0367,-0.04571,-0.00939947,0.0,0 STARLINK-5977,1 56791U 23078AA  23274.50001157 -.00939947  00000-0 -45710-1 0  9996,2 56791  70.0004  69.5177 0003393 271.0636  94.0367 15.20983142 19586,6881.011,94.676,505.211,500.541,0.0
56791.0,STARLINK-5977,PAYLOAD,2023-10-01 14:00:01,15.20823795,0.000328,70.0004,69.3001,273.8693,187.3655,-0.046805,-0.00956616,0.0,0 STARLINK-5977,1 56791U 23078AA  23274.58334491 -.00956616  00000-0 -46805-1 0  9992,2 56791  70.0004  69.3001 0003280 273.8693 187.3655 15.20823795  5968,6881.491,94.686,505.614,501.099,0.0
56791.0,STARLINK-5977,PAYLOAD,2023-10-01 22:00:00,15.20136307,0.000333,70.0002,68.4302,278.9898,206.2912,-0.044573,-0.00897283,0.0,0 STARLINK-5977,1 56791U 23078AA  23274.91667824 -.00897283  00000-0 -44573-1 0  9992,2 56791  70.0002  68.4302 0003330 278.9898 206.2912 15.20136307  6020,6883.566,94.728,507.723,503.139,0.0
56791.0,STARLINK-5977,PAYLOAD,2023-10-02 22:00:00,15.18183701,0.00032,70.0005,65.8264,277.2155,275.4753,-0.047638,-0.00905446,0.0,0 STARLINK-5977,1 56791U 23078AA  23275.91667824 -.00905446  00000-0 -47638-1 0  9999,2 56791  70.0005  65.8264 0003200 277.2155 275.4753 15.18183701 19803,6889.467,94.85,513.537,509.127,0.0
56791.0,STARLINK-5977,PAYLOAD,2023-10-03 12:00:00,15.17070515,0.0003209,70.0009,64.311,271.9341,226.8151,-0.05152,-0.00945168,0.0,0 STARLINK-5977,1 56791U 23078AA  23276.50001157 -.00945168  00000-0 -51520-1 0  9996,2 56791  70.0009  64.3110 0003209 271.9341 226.8151 15.17070515 19885,6892.837,94.92,516.914,512.49,0.0
56791.0,STARLINK-5977,PAYLOAD,2023-10-03 14:00:01,15.1690523,0.000323,70.0009,64.0948,270.9606,322.7507,-0.052027,-0.009496,0.0,0 STARLINK-5977,1 56791U 23078AA  23276.58334491 -.00949600  00000-0 -52027-1 0  9992,2 56791  70.0009  64.0948 0003230 270.9606 322.7507 15.16905230  6021,6893.337,94.93,517.429,512.976,0.0
56791.0,STARLINK-5977,PAYLOAD,2023-10-03 22:00:00,15.16230377,0.0003274,70.0006,63.2302,275.3412,337.7179,-0.050763,-0.00911707,0.0,0 STARLINK-5977,1 56791U 23078AA  23276.91667824 -.00911707  00000-0 -50763-1 0  9990,2 56791  70.0006  63.2302 0003274 275.3412 337.7179 15.16230377  5927,6895.383,94.972,519.505,514.99,0.0
56791.0,STARLINK-5977,PAYLOAD,2023-10-04 14:00:01,15.14947182,0.0003311,70.0009,61.5039,270.5194,18.8689,-0.054909,-0.00947883,0.0,0 STARLINK-5977,1 56791U 23078AA  23277.58334491 -.00947883  00000-0 -54909-1 0  9995,2 56791  70.0009  61.5039 0003311 270.5194  18.8689 15.14947182  6026,6899.276,95.053,523.425,518.857,0.0
56791.0,STARLINK-5977,PAYLOAD,2023-10-04 20:00:01,15.14421052,0.0003212,70.0008,60.8573,275.7647,296.4554,-0.051814,-0.00885832,0.0,0 STARLINK-5977,1 56791U 23078AA  23277.83334491 -.00885832  00000-0 -51814-1 0  9990,2 56791  70.0008  60.8573 0003212 275.7647 296.4554 15.14421052 20091,6900.874,95.086,524.955,520.522,0.0
56791.0,STARLINK-5977,PAYLOAD,2023-10-04 22:00:01,15.14277808,0.000333,70.0005,60.6418,275.0093,31.4419,-0.054116,-0.00918898,0.0,0 STARLINK-5977,1 56791U 23078AA  23277.91668981 -.00918898  00000-0 -54116-1 0  9990,2 56791  70.0005  60.6418 0003330 275.0093  31.4419 15.14277808  6081,6901.309,95.095,525.472,520.876,0.0
56791.0,STARLINK-5977,PAYLOAD,2023-10-05 04:00:00,15.13773721,0.0003141,70.0007,59.996,270.2593,318.3668,-0.053906,-0.00903535,0.0,0 STARLINK-5977,1 56791U 23078AA  23278.16667824 -.00903535  00000-0 -53906-1 0  9991,2 56791  70.0007  59.9960 0003141 270.2593 318.3668 15.13773721 20148,6902.841,95.127,526.874,522.538,0.0
56791.0,STARLINK-5977,PAYLOAD,2023-10-05 14:00:01,15.12988903,0.0003348,70.001,58.9212,271.0555,66.9698,-0.05791,-0.00946068,0.0,0 STARLINK-5977,1 56791U 23078AA  23278.58334491 -.00946068  00000-0 -57910-1 0  9995,2 56791  70.0010  58.9212 0003348 271.0555  66.9698 15.12988903  6183,6905.228,95.176,529.405,524.781,0.0
56791.0,STARLINK-5977,PAYLOAD,2023-10-05 20:00:01,15.12465595,0.0003259,70.0007,58.2761,274.7732,344.3212,-0.054891,-0.00888033,0.0,0 STARLINK-5977,1 56791U 23078AA  23278.83334491 -.00888033  00000-0 -54891-1 0  9995,2 56791  70.0007  58.2761 0003259 274.7732 344.3212 15.12465595 20244,6906.821,95.209,530.936,526.435,0.0
